[{"OBJECT_NAME":"STARLINK-34485","OBJECT_ID":"2025-139W","EPOCH":"2026-03-09T10:36:52.714656","MEAN_MOTION":15.30197102,"ECCENTRICITY":0.00011113,"INCLINATION":53.1574,"RA_OF_ASC_NODE":128.3676,"ARG_OF_PERICENTER":77.9485,"MEAN_ANOMALY":282.164,"EPHEMERIS_TYPE":0,"CLASSIFICATION_TYPE":"U","NORAD_CAT_ID":64684,"ELEMENT_SET_NO":999,"REV_AT_EPOCH":4024,"BSTAR":0.00089654486,"MEAN_MOTION_DOT":0.00026285,"MEAN_MOTION_DDOT":0},{"OBJECT_NAME":"FENGYUN 1C DEB","OBJECT_ID":"1999-025AQG","EPOCH":"2026-03-09T10:43:06.043872","MEAN_MOTION":15.25746961,"ECCENTRICITY":0.00178142,"INCLINATION":98.9311,"RA_OF_ASC_NODE":250.2123,"ARG_OF_PERICENTER":328.3876,"MEAN_ANOMALY":31.6286,"EPHEMERIS_TYPE":0,"CLASSIFICATION_TYPE":"U","NORAD_CAT_ID":30674,"ELEMENT_SET_NO":999,"REV_AT_EPOCH":98658,"BSTAR":0.015201752,"MEAN_MOTION_DOT":0.00411052,"MEAN_MOTION_DDOT":0}]
